OPS 6582 (TRANSIT 5B-5) 
1 00965U 64083D   23188.76450199  .00000054  00000+0  61950-4 0  9997
2 00965  90.0322 196.7629 0041110 179.7078 353.6369 13.56828722898334
OSCAR 7 (AO-7)          
1 07530U 74089B   23187.76257434 -.00000048  00000+0 -10329-4 0  9994
2 07530 101.9473 174.5719 0012489  27.9604 145.3951 12.53665165225869
UOSAT 2 (UO-11)         
1 14781U 84021B   23188.20558261  .00001432  00000+0  17393-3 0  9992
2 14781  97.6580 164.3618 0009401 129.0185 231.1869 14.84971529118119
NOAA 9                  
1 15427U 84123A   23188.48746722  .00000147  00000+0  97345-4 0  9992
2 15427  99.0900 172.9785 0015288 151.1280 322.1215 14.16378938991341
LUSAT (LO-19)           
1 20442U 90005G   23188.20647046  .00000203  00000+0  90620-4 0  9992
2 20442  98.8445 165.1505 0012753 117.4212 242.8270 14.33274642748270
ITAMSAT (IO-26)         
1 22826U 93061D   23188.35320529  .00000156  00000+0  77082-4 0  9999
2 22826  98.8341 231.4301 0008895   2.5608 357.5618 14.30680169553691
RADIO ROSTO (RS-15)     
1 23439U 94085A   23185.11902922 -.00000011  00000+0  89746-3 0  9991
2 23439  64.8151 248.3024 0162118 207.2981 151.9352 11.27575152174520
JAS-2 (FO-29)           
1 24278U 96046B   23188.44995841  .00000009  00000+0  45356-4 0  9999
2 24278  98.5292 164.2430 0350364   4.5317 355.8859 13.53148653327926
NOAA 15                 
1 25338U 98030A   23188.78073053  .00000273  00000+0  13166-3 0  9997
2 25338  98.6044 217.4842 0009197 251.3230 108.6952 14.26347949308195
TECHSAT 1B (GO-32)      
1 25397U 98043D   23188.17708967  .00000105  00000+0  65551-4 0  9998
2 25397  98.8697 145.8067 0002439  82.5969 277.5486 14.23885323298392
ISS (ZARYA)             
1 25544U 98067A   23189.04008991  .00010628  00000+0  19664-3 0  9999
2 25544  51.6406 225.1704 0000310  55.1490 147.8978 15.49602302405020
ORSTED                  
1 25635U 99008B   23188.13225974  .00000587  00000+0  14415-3 0  9999
2 25635  96.4662 327.8026 0137787  33.2696 327.7071 14.49111480286248
PHASE 3D (AO-40)        
1 26609U 00072B   23186.25260122 -.00000150  00000+0  00000+0 0  9997
2 26609   6.1141 178.1161 7913213 174.2334 209.9832  1.25587351104109
PCSAT (NO-44)           
1 26931U 01043C   23187.63157710  .00000184  00000+0  10142-3 0  9993
2 26931  67.0502 146.6180 0008077 269.4267  90.5909 14.30937942136528
SAUDISAT 1C (SO-50)     
1 27607U 02058C   23187.66077709  .00000832  00000+0  13254-3 0  9990
2 27607  64.5527 205.2245 0067204 220.8027 138.8034 14.77375052105311
CUTE-1 (CO-55)          
1 27844U 03031E   23187.94032802  .00000362  00000+0  18072-3 0  9992
2 27844  98.6770 194.9070 0011027  71.1376 289.0997 14.22807153 38570
CUBESAT XI-IV (CO-57)   
1 27848U 03031J   23188.59137215  .00000331  00000+0  16858-3 0  9998
2 27848  98.6808 195.9565 0010976  82.8893 277.3533 14.22315070 38456
MOZHAYETS 4 (RS-22)     
1 27939U 03042A   23188.78215545  .00001296  00000+0  23220-3 0  9997
2 27939  98.2459 335.8999 0013681  73.8444  33.5622 14.68457616 57566
INMARSAT 4-F1           
1 28628U 05009A   23188.55882647 -.00000267  00000+0  00000+0 0  9991
2 28628   3.9288  38.6669 0002834  74.7817 156.4775  1.00271991 66880
NOAA 18                 
1 28654U 05018A   23188.74358808  .00000247  00000+0  15636-3 0  9990
2 28654  98.9093 263.0343 0013470 325.3333  34.6959 14.12965565934470
CUBESAT XI-V            
1 28895U 05043F   23188.34684185  .00001488  00000+0  28169-3 0  9994
2 28895  98.1563 320.2554 0016367  13.5729 346.5912 14.65741091943999
METOP-A                 
1 29499U 06044A   23188.79390316  .00001257  00000+0  17163-3 0  9992
2 29499  98.3995 249.8162 0192862 237.8147 233.9848 14.68636168870056
CARTOSAT-2 (IRS-P7)     
1 29710U 07001B   23187.82266506  .00048254  00000+0  60741-3 0  9996
2 29710  97.8956 327.0442 0094832 130.0028 230.9598 15.54153099895355
CAPE-1                  
1 31130U 07012P   23188.26266296  .00001109  00000+0  23581-3 0  9991
2 31130  98.3085 132.3422 0092919 179.6938 180.4334 14.58430969861145
CARTOSAT-2A             
1 32783U 08021A   23188.66103011  .00001020  00000+0  14590-3 0  9998
2 32783  97.9151 248.7925 0012415   7.0688 353.0696 14.78700670819949
CUTE-1.7+APD II (CO-65) 
1 32785U 08021C   23188.37879598  .00003947  00000+0  38985-3 0  9992
2 32785  97.7069 153.9035 0013253  43.2997 316.9262 14.92442179823903
COMPASS-1               
1 32787U 08021E   23188.17671321  .00007115  00000+0  55264-3 0  9996
2 32787  97.5845 164.2068 0008732 313.4158  46.6339 15.01598166825704
AAUSAT-II               
1 32788U 08021F   23188.37443689  .00009250  00000+0  66793-3 0  9994
2 32788  97.5594 167.3486 0005920 289.6921  70.3667 15.04292469826240
DELFI-C3 (DO-64)        
1 32789U 08021G   23188.79116309  .00068788  00000+0  17540-2 0  9993
2 32789  97.3005 210.1730 0006986  77.9485 282.2543 15.39254602830653
SEEDS II (CO-66)        
1 32791U 08021J   23188.46066709  .00006190  00000+0  54269-3 0  9997
2 32791  97.6562 159.2737 0011162 354.4435   5.6661 14.96953640824771
YUBILEINY (RS-30)       
1 32953U 08025A   23188.72733104  .00000044  00000+0  24314-3 0  9990
2 32953  82.5041 304.3188 0020534 138.4673 221.7971 12.43126310686201
FENGYUN 3A              
1 32958U 08026A   23188.73218313  .00000165  00000+0  99645-4 0  9991
2 32958  98.5558 141.8200 0008681 358.0816   2.0326 14.18886467782978
PRISM (HITOMI)          
1 33493U 09002B   23188.04472966  .00010085  00000+0  67757-3 0  9991
2 33493  98.2445 203.9594 0014938 346.3982  13.6839 15.06920124786740
STARS (KUKAI)           
1 33498U 09002G   23188.66754058  .00003031  00000+0  38719-3 0  9998
2 33498  98.1342  91.8562 0011863  87.9659 272.2912 14.82145272778867
KKS-1 (KISEKI)          
1 33499U 09002H   23188.64998755  .00001308  00000+0  19242-3 0  9996
2 33499  98.1709  81.2286 0009236 153.4128 206.7557 14.77137768777515
NOAA 19                 
1 33591U 09005A   23188.79067665  .00000235  00000+0  15126-3 0  9990
2 33591  99.0982 235.0456 0013920 180.7313 179.3840 14.12782614742857
SWISSCUBE               
1 35932U 09051B   23188.09579245  .00000987  00000+0  22660-3 0  9992
2 35932  98.5189  58.9225 0006530 313.2212  46.8440 14.57783540732151
BEESAT-1                
1 35933U 09051C   23188.60810853  .00000944  00000+0  21747-3 0  9991
2 35933  98.5117  60.7540 0005017 328.3923  31.6973 14.57685815732349
ITUPSAT1                
1 35935U 09051E   23188.11215637  .00000784  00000+0  18626-3 0  9992
2 35935  98.5219  60.1850 0007406 331.5022  28.5769 14.56730323731893
XIWANG-1 (HOPE-1)       
1 36122U 09072B   23187.84633630  .00000001  00000+0  11647-3 0  9998
2 36122 100.2387 151.1044 0007501 172.3726 187.7503 13.16384520651493
CARTOSAT-2B             
1 36795U 10035A   23188.76616358  .00001008  00000+0  14437-3 0  9993
2 36795  97.9095 248.7780 0014387  79.0495 281.2334 14.78676582701009
TISAT 1                 
1 36799U 10035E   23188.60728707  .00004781  00000+0  42582-3 0  9995
2 36799  98.1346  59.0394 0009319 267.6207  92.3947 14.96514229705480
FENGYUN 3B              
1 37214U 10059A   23188.87026914  .00000086  00000+0  69147-4 0  9995
2 37214  99.0828 206.5893 0021992 350.7362 131.5882 14.14353538655435
JUGNU                   
1 37839U 11058B   23188.80400486  .00000492  00000+0  11957-3 0  9997
2 37839  19.9624 357.8461 0018873  86.3664 302.6646 14.12972514606811
SRMSAT                  
1 37841U 11058D   23187.09630811  .00000444  00000+0  98500-4 0  9994
2 37841  19.9721  95.6937 0011779 238.9461 149.2869 14.10910537605709
M-CUBED & EXP-1 PRIME   
1 37855U 11061F   23188.44898568  .00030467  00000+0  92025-3 0  9991
2 37855 101.7066 161.5669 0114834 338.5270  21.1157 15.27897294640128
HORYU-2                 
1 38340U 12025D   23188.69826155  .00002781  00000+0  38612-3 0  9992
2 38340  98.1713 277.6831 0011996  75.2095 285.0444 14.78691492599536
METOP-B                 
1 38771U 12049A   23188.80760567  .00000149  00000+0  87864-4 0  9993
2 38771  98.6775 247.8368 0001044  83.6089  61.8920 14.21507542560470
SARAL                   
1 39086U 13009A   23187.80024001  .00000102  00000+0  53900-4 0  9998
2 39086  98.5479  12.8034 0001307 188.9449 171.1712 14.32230866541490
AAUSAT 3                
1 39087U 13009B   23188.82256099  .00000751  00000+0  26853-3 0  9992
2 39087  98.3811  23.4131 0011827 190.4952 169.5990 14.36837739542890
STRAND-1                
1 39090U 13009E   23188.49398234  .00000353  00000+0  13703-3 0  9995
2 39090  98.3881  21.2967 0008487 196.5600 163.5310 14.35623129542658
BRITE-AUSTRIA           
1 39091U 13009F   23188.49428719  .00000230  00000+0  94803-4 0  9993
2 39091  98.3911  20.5268 0009821 204.8593 155.2121 14.35503075542673
UNIBRITE                
1 39092U 13009G   23188.48074236  .00000238  00000+0  97737-4 0  9991
2 39092  98.3948  20.3546 0008819 199.4527 160.6324 14.35375035542626
SOMP                    
1 39134U 13015E   23188.79982749  .00153436  00000+0  13342-2 0  9993
2 39134  64.8439 213.6826 0018152 278.1464  81.7628 15.68135165566597
BEESAT-3                
1 39135U 13015F   23187.59521342  .00040003  00000+0  84131-3 0  9999
2 39135  64.8572 271.8044 0018899 250.7737 109.1358 15.44907535565362
BEESAT-2                
1 39136U 13015G   23188.39489647  .00034746  00000+0  81297-3 0  9997
2 39136  64.8675 281.0384 0028065 274.1670  85.6261 15.41559674565274
NEE-01 PEGASO           
1 39151U 13018B   23188.56751297  .00002510  00000+0  31552-3 0  9992
2 39151  98.0115 298.7750 0017378  86.7419 273.5782 14.82904218550715
CUBEBUG-1 (CAPITAN BETO)
1 39153U 13018D   23188.75165874  .00003108  00000+0  37911-3 0  9994
2 39153  98.0413 305.1178 0016990  80.4800 279.8333 14.83989143550924
ESTCUBE 1               
1 39161U 13021C   23188.17301451  .00001690  00000+0  26202-3 0  9991
2 39161  97.8713 259.8709 0007829 264.1920  95.8396 14.74401948546116
